IRIDIUM 150             
1 43257U 18030J   24034.22781652  .00000383  00000+0  12984-3 0  9999
2 43257  86.3966 291.9552 0001748  91.4307 268.7089 14.34216722306188
IRIDIUM 143             
1 43258U 18030K   24034.20878831  .00000087  00000+0  24044-4 0  9996
2 43258  86.3968 292.0218 0001909  98.6978 261.4434 14.34218055306112
IRIDIUM 161             
1 43478U 18047C   24034.54411125  .00000428  00000+0  12135-3 0  9990
2 43478  86.4457  89.8569 0002227  92.2346 267.9110 14.43268957300420
IRIDIUM 152             
1 43479U 18047D   24034.66988795 -.00000023  00000+0 -15224-4 0  9992
2 43479  86.3930  89.6635 0002213 100.8167 259.3278 14.34217254298587
IRIDIUM 147             
1 43480U 18047E   24034.67622593  .00000163  00000+0  51202-4 0  9995
2 43480  86.3934  89.6507 0002144  87.4378 272.7063 14.34215955298574
IRIDIUM 110             
1 43481U 18047F   24034.82210808  .00000213  00000+0  69038-4 0  9997
2 43481  86.3934  89.6592 0001970  82.0352 278.1067 14.34218637298583
IRIDIUM 162             
1 43482U 18047G   24034.53781182  .00000426  00000+0  12068-3 0  9990
2 43482  86.4457  89.7613 0002206  92.8678 267.2775 14.43272668300418
IRIDIUM 160             
1 43569U 18061A   24034.76794441  .00000111  00000+0  32490-4 0  9992
2 43569  86.3929  58.0262 0002633  89.0190 271.1307 14.34216405289471
